IRIDIUM 150             
1 43257U 18030J   24205.78860353 -.00000041  00000+0 -21676-4 0  9998
2 43257  86.3967 220.2246 0002285  83.2222 276.9234 14.34216368330777
IRIDIUM 143             
1 43258U 18030K   24205.42073319 -.00000008  00000+0 -98750-5 0  9999
2 43258  86.3971 220.4436 0002181  81.6547 278.4896 14.34216872330651
IRIDIUM 161             
1 43478U 18047C   24205.92991917  .00000385  00000+0  10857-3 0  9995
2 43478  86.4493  18.1791 0002030  85.4688 274.6745 14.43284816325144
IRIDIUM 152             
1 43479U 18047D   24205.95160116  .00000635  00000+0  21956-3 0  9998
2 43479  86.3969  18.0295 0002189  90.0605 270.0842 14.34218734323126
IRIDIUM 147             
1 43480U 18047E   24206.02770964  .00000291  00000+0  96909-4 0  9996
2 43480  86.3962  17.9906 0002249  93.1756 266.9697 14.34218134323133
IRIDIUM 110             
1 43481U 18047F   24205.40613761  .00000457  00000+0  15607-3 0  9998
2 43481  86.3972  18.3246 0002275 100.2631 259.8821 14.34219138323032
IRIDIUM 162             
1 43482U 18047G   24205.99304489  .00000375  00000+0  10547-3 0  9994
2 43482  86.4491  18.0521 0002300  90.4757 269.6708 14.43280280325144
IRIDIUM 160             
1 43569U 18061A   24205.63104604  .00000262  00000+0  86362-4 0  9998
2 43569  86.4001 346.6182 0001870 102.3868 257.7538 14.34218674313961
